{
  "norad_id": 49056,
  "name": "EUTELSAT QUANTUM",
  "history": [
    {
      "epoch": "2026-03-28T21:53:38.711904Z",
      "apogee_km": 35796.00552437562,
      "perigee_km": 35776.3181699579,
      "latitude_deg": 0.02535057596509836,
      "longitude_deg": 47.69255440677066,
      "height_km": 35795.05468465103,
      "semi_major_axis_km": 42164.29884716676,
      "eccentricity": 0.00023346,
      "inclination_deg": 0.0418,
      "raan_deg": 47.5849,
      "arg_perigee_deg": 316.8988,
      "mean_anomaly_deg": 197.9309,
      "mean_motion_rev_day": 1.0027333
    },
    {
      "epoch": "2026-03-29T02:59:30.060672Z",
      "apogee_km": 35795.96625235683,
      "perigee_km": 35776.29240568771,
      "latitude_deg": 0.005440364684704886,
      "longitude_deg": 47.675357645646365,
      "height_km": 35784.91584683597,
      "semi_major_axis_km": 42164.26632902227,
      "eccentricity": 0.0002333,
      "inclination_deg": 0.0422,
      "raan_deg": 47.94,
      "arg_perigee_deg": 317.1266,
      "mean_anomaly_deg": 274.0227,
      "mean_motion_rev_day": 1.00273446
    },
    {
      "epoch": "2026-03-30T02:56:58.584192Z",
      "apogee_km": 35795.85505220568,
      "perigee_km": 35776.08851800722,
      "latitude_deg": 0.008153956894347012,
      "longitude_deg": 47.68130752427532,
      "height_km": 35785.09887230238,
      "semi_major_axis_km": 42164.10878510645,
      "eccentricity": 0.0002344,
      "inclination_deg": 0.0444,
      "raan_deg": 47.9945,
      "arg_perigee_deg": 319.4287,
      "mean_anomaly_deg": 272.0263,
      "mean_motion_rev_day": 1.00274008
    },
    {
      "epoch": "2026-03-31T18:18:39.828672Z",
      "apogee_km": 35796.86120232354,
      "perigee_km": 35775.89700491682,
      "latitude_deg": -0.03486436525017843,
      "longitude_deg": 47.74808970385933,
      "height_km": 35793.460015866316,
      "semi_major_axis_km": 42164.51610362018,
      "eccentricity": 0.0002486,
      "inclination_deg": 0.0166,
      "raan_deg": 223.3824,
      "arg_perigee_deg": 152.2032,
      "mean_anomaly_deg": 135.9264,
      "mean_motion_rev_day": 1.00272555
    },
    {
      "epoch": "2026-04-01T16:33:31.596192Z",
      "apogee_km": 35796.69997171176,
      "perigee_km": 35775.735854448976,
      "latitude_deg": -0.03936827874301182,
      "longitude_deg": 47.75732116409332,
      "height_km": 35788.95161181534,
      "semi_major_axis_km": 42164.35491308037,
      "eccentricity": 0.0002486,
      "inclination_deg": 0.0149,
      "raan_deg": 225.4023,
      "arg_perigee_deg": 152.9782,
      "mean_anomaly_deg": 107.7656,
      "mean_motion_rev_day": 1.0027313
    },
    {
      "epoch": "2026-04-02T07:31:38.705088Z",
      "apogee_km": 35796.53102125023,
      "perigee_km": 35775.688390818505,
      "latitude_deg": 0.026615679077539114,
      "longitude_deg": 47.719766964068334,
      "height_km": 35776.342464390684,
      "semi_major_axis_km": 42164.24670603437,
      "eccentricity": 0.00024716,
      "inclination_deg": 0.0133,
      "raan_deg": 225.3654,
      "arg_perigee_deg": 153.9743,
      "mean_anomaly_deg": 331.9557,
      "mean_motion_rev_day": 1.00273516
    },
    {
      "epoch": "2026-04-03T19:53:59.024832Z",
      "apogee_km": 35796.993918666194,
      "perigee_km": 35777.7833051974,
      "latitude_deg": -0.02176956760910891,
      "longitude_deg": 47.71535173532347,
      "height_km": 35796.10038751406,
      "semi_major_axis_km": 42165.5256119318,
      "eccentricity": 0.0002278,
      "inclination_deg": 0.0092,
      "raan_deg": 225.4939,
      "arg_perigee_deg": 150.1903,
      "mean_anomaly_deg": 162.6682,
      "mean_motion_rev_day": 1.00268954
    },
    {
      "epoch": "2026-04-04T05:50:38.728320Z",
      "apogee_km": 35796.581736526845,
      "perigee_km": 35777.46826859108,
      "latitude_deg": 0.027742630995179866,
      "longitude_deg": 47.6779120690391,
      "height_km": 35779.92226086507,
      "semi_major_axis_km": 42165.162002558965,
      "eccentricity": 0.00022665,
      "inclination_deg": 0.0054,
      "raan_deg": 232.5232,
      "arg_perigee_deg": 142.0726,
      "mean_anomaly_deg": 313.3207,
      "mean_motion_rev_day": 1.00270251
    },
    {
      "epoch": "2026-04-05T12:58:23.665152Z",
      "apogee_km": 35796.42962372514,
      "perigee_km": 35777.31032296315,
      "latitude_deg": -0.01809440141802215,
      "longitude_deg": 47.71218649319938,
      "height_km": 35781.67417357163,
      "semi_major_axis_km": 42165.00697334415,
      "eccentricity": 0.00022672,
      "inclination_deg": 0.0022,
      "raan_deg": 204.2375,
      "arg_perigee_deg": 171.102,
      "mean_anomaly_deg": 60.7874,
      "mean_motion_rev_day": 1.00270804
    },
    {
      "epoch": "2026-04-05T19:49:02.983008Z",
      "apogee_km": 35796.435032797286,
      "perigee_km": 35777.2499671248,
      "latitude_deg": -0.018370274677438948,
      "longitude_deg": 47.694781713555294,
      "height_km": 35795.67431441303,
      "semi_major_axis_km": 42164.979499961046,
      "eccentricity": 0.0002275,
      "inclination_deg": 0.0047,
      "raan_deg": 226.8888,
      "arg_perigee_deg": 146.4447,
      "mean_anomaly_deg": 165.7376,
      "mean_motion_rev_day": 1.00270902
    },
    {
      "epoch": "2026-04-06T04:22:24.405024Z",
      "apogee_km": 35796.37177774846,
      "perigee_km": 35777.20613230487,
      "latitude_deg": -0.008461083014306104,
      "longitude_deg": 47.66262321546589,
      "height_km": 35782.70392882154,
      "semi_major_axis_km": 42164.92595502667,
      "eccentricity": 0.00022727,
      "inclination_deg": 0.0136,
      "raan_deg": 36.6114,
      "arg_perigee_deg": 339.3113,
      "mean_anomaly_deg": 291.838,
      "mean_motion_rev_day": 1.00271093
    },
    {
      "epoch": "2026-04-07T14:36:04.077792Z",
      "apogee_km": 35796.15897696451,
      "perigee_km": 35777.08701272364,
      "latitude_deg": 0.0054926220120263365,
      "longitude_deg": 47.71010973845939,
      "height_km": 35785.398659506274,
      "semi_major_axis_km": 42164.75999484408,
      "eccentricity": 0.00022616,
      "inclination_deg": 0.0135,
      "raan_deg": 25.9092,
      "arg_perigee_deg": 350.9437,
      "mean_anomaly_deg": 85.7271,
      "mean_motion_rev_day": 1.00271685
    },
    {
      "epoch": "2026-04-07T19:44:05.591616Z",
      "apogee_km": 35796.1157576675,
      "perigee_km": 35777.07416471383,
      "latitude_deg": 0.00355922741258745,
      "longitude_deg": 47.69191795936239,
      "height_km": 35795.21414964354,
      "semi_major_axis_km": 42164.73196119067,
      "eccentricity": 0.0002258,
      "inclination_deg": 0.0012,
      "raan_deg": 110.7252,
      "arg_perigee_deg": 266.3464,
      "mean_anomaly_deg": 162.7257,
      "mean_motion_rev_day": 1.00271785
    }
  ]
}